STARLINK-30335          
1 57710U 23129N   24105.79958569  .00004209  00000+0  32639-3 0  9997
2 57710  43.0015 290.8354 0001164 257.0971 102.9741 15.02544295 36278
STARLINK-30318          
1 57711U 23129P   24105.67661891  .00001089  00000+0  95658-4 0  9998
2 57711  43.0038 291.6191 0002173 237.4167 122.6465 15.02535497 36010
STARLINK-30348          
1 57712U 23129Q   24105.65664226  .00026928  00000+0  20000-2 0  9998
2 57712  43.0029 291.4906 0001826 273.5519  86.5115 15.02551153 36252
STARLINK-30349          
1 57713U 23129R   24104.85223851  .00003143  00000+0  24758-3 0  9994
2 57713  43.0033 295.7692 0001477 273.5729  86.4944 15.02549867 35990
STARLINK-30341          
1 57714U 23129S   24105.62667386  .00001422  00000+0  12035-3 0  9999
2 57714  43.0049 291.2642 0002294 262.1474  97.9107 15.02531711 36250
STARLINK-30300          
1 57715U 23129T   24104.79576896  .00004938  00000+0  38035-3 0  9995
2 57715  43.0040 296.2078 0001024 268.0668  92.0057 15.02539276 36120
STARLINK-30281          
1 57716U 23129U   24104.97522268  .00006373  00000+0  48656-3 0  9995
2 57716  43.0031 294.9699 0000969 215.0979 144.9800 15.02526440 35850
STARLINK-30325          
1 57717U 23129V   24104.85558088 -.00000600  00000+0 -29325-4 0  9994
2 57717  43.0028 295.7948 0001615 269.1500  90.9157 15.02530046 36136
STARLINK-30338          
1 57718U 23129W   24105.70979319 -.00013502  00000+0 -98578-3 0  9994
2 57718  43.0028 291.0243 0001755 282.0547  78.0099 15.02556695 36257
STARLINK-30334          
1 57719U 23129X   24104.91539385  .00007861  00000+0  59609-3 0  9993
2 57719  43.0025 295.3839 0001431 278.1735  81.8945 15.02552414 36009
STARLINK-30375          
1 57732U 23131A   24105.74561892  .00001202  00000+0  10406-3 0  9996
2 57732  43.0044 329.9949 0001413 262.1236  97.9446 15.02541808 35570
STARLINK-30310          
1 57733U 23131B   24105.82611373  .00000975  00000+0  87241-4 0  9994
2 57733  43.0039 341.6534 0002130 240.5192 119.5438 15.02537524 35688
STARLINK-30365          
1 57734U 23131C   24105.66331022 -.00001142  00000+0 -69507-4 0  9991
2 57734  43.0043 342.9773 0001340 259.1075 100.9616 15.02538800 35502
STARLINK-30371          
1 57735U 23131D   24105.04170157  .00001784  00000+0  14709-3 0  9997
2 57735  43.0049 346.0900 0001413 273.1551  86.9130 15.02538147 35320
STARLINK-30352          
1 57736U 23131E   24105.03171393 -.00000914  00000+0 -52585-4 0  9991
2 57736  43.0027 346.0137 0001167 267.5065  92.5644 15.02544278 35327
STARLINK-30344          
1 57737U 23131F   24105.67662122  .00019172  00000+0  14296-2 0  9996
2 57737  43.0040 343.1123 0001697 251.8369 108.2289 15.02558194 35251
STARLINK-30351          
1 57738U 23131G   24104.80909103 -.00001414  00000+0 -89653-4 0  9997
2 57738  43.0033 347.7865 0001203 275.7411  84.3294 15.02530897 35398
STARLINK-30242          
1 57739U 23131H   24105.75368934 -.00023860  00000+0 -17514-2 0  9998
2 57739  43.0021 317.0901 0003573  26.3019 333.8004 15.02654668 35724
STARLINK-30331          
1 57740U 23131J   24105.79959731  .00001673  00000+0  13891-3 0  9996
2 57740  43.0039 342.3189 0001047 261.7590  98.3134 15.02534447 35276
STARLINK-30364          
1 57741U 23131K   24105.65665053  .00001438  00000+0  12145-3 0  9993
2 57741  43.0033 342.9650 0000820 266.6903  93.3846 15.02539112 35404
STARLINK-30308          
1 57742U 23131L   24105.66996483  .00000237  00000+0  32655-4 0  9994
2 57742  43.0047 343.0596 0002142 249.4226 110.6387 15.02539810 35427
STARLINK-30361          
1 57743U 23131M   24104.85558666  .00001381  00000+0  11731-3 0  9994
2 57743  43.0041 347.2718 0001173 268.5941  91.4767 15.02538017 35407
STARLINK-30363          
1 57744U 23131N   24105.01103521 -.00000634  00000+0 -31897-4 0  9998
2 57744  43.0041 333.9440 0001653 257.3739 102.6918 15.02527518 35571
STARLINK-30362          
1 57745U 23131P   24105.05168390  .00004392  00000+0  33988-3 0  9993
2 57745  43.0044 346.1614 0001475 261.3788  98.6888 15.02552013 35214
STARLINK-30350          
1 57746U 23131Q   24105.81291208  .00027613  00000+0  20503-2 0  9992
2 57746  43.0029 342.3957 0001363 247.0148 113.0550 15.02551415 35531
STARLINK-30307          
1 57747U 23131R   24104.85336304  .00005722  00000+0  43819-3 0  9996
2 57747  43.0030 347.2550 0001266 249.1816 110.8890 15.02546588 35407
STARLINK-30356          
1 57748U 23131S   24105.84276252  .00002594  00000+0  20701-3 0  9991
2 57748  43.0039 341.7767 0001339 266.0873  93.9816 15.02544472 35441
STARLINK-30366          
1 57749U 23131T   24104.82562034 -.00002431  00000+0 -16496-3 0  9993
2 57749  43.0026 347.0455 0001490 275.5727  84.4945 15.02527124 35401
STARLINK-30357          
1 57750U 23131U   24104.83560783  .00000513  00000+0  53066-4 0  9997
2 57750  43.0054 347.1220 0001338 268.1665  91.9025 15.02538188 35409
STARLINK-30370          
1 57751U 23131V   24104.94123490 -.00000318  00000+0 -84902-5 0  9999
2 57751  43.0049 334.3148 0001300 266.1015  93.9679 15.02531649 35454
STARLINK-30368          
1 57752U 23131W   24104.99518826  .00002096  00000+0  17017-3 0  9990
2 57752  43.0058 346.5680 0001256 261.4272  98.6429 15.02548556 35410
STARLINK-30343          
1 57753U 23131X   24105.83610399  .00002678  00000+0  21320-3 0  9991
2 57753  43.0041 341.7265 0001388 263.9113  96.1571 15.02542633 35440
STARLINK-30397          
1 57771U 23134A   24105.83896460  .00010354  00000+0  78041-3 0  9991
2 57771  43.0046   8.0767 0001815 246.4560 113.6092 15.02537403 34937
STARLINK-30354          
1 57772U 23134B   24105.85216983 -.00000038  00000+0  12279-4 0  9991
2 57772  43.0048   7.3142 0001542 251.9032 108.1642 15.02523861 35104
STARLINK-30383          
1 57773U 23134C   24105.10437786 -.00000836  00000+0 -46819-4 0  9990
2 57773  43.0057  12.0252 0001438 263.6211  96.4468 15.02529887 34987
STARLINK-30384          
1 57774U 23134D   24105.16419732  .00000327  00000+0  39303-4 0  9991
2 57774  43.0058  11.6130 0001426 268.8607  91.2072 15.02534825 34759
STARLINK-30305          
1 57775U 23134E   24105.69935101  .00002602  00000+0  20762-3 0  9999
2 57775  43.0052   8.7465 0001384 266.9879  93.0805 15.02539828 34836
STARLINK-30360          
1 57776U 23134F   24105.09439922  .00000119  00000+0  23894-4 0  9995
2 57776  43.0045  11.9482 0001584 251.6188 108.4482 15.02523409 34829
STARLINK-30355          
1 57777U 23134G   24105.15421161  .00011623  00000+0  87398-3 0  9999
2 57777  43.0045  11.5136 0001705 243.3901 116.6766 15.02540392 34981
STARLINK-30385          
1 57778U 23134H   24105.70628155  .00005393  00000+0  41391-3 0  9993
2 57778  43.0044 355.9529 0001722 258.9965 101.0683 15.02544711 35068
STARLINK-30359          
1 57779U 23134J   24105.83257932  .00001509  00000+0  12673-3 0  9995
2 57779  43.0061 355.2079 0001086 273.5421  86.5297 15.02548713 35079
STARLINK-30380          
1 57780U 23134K   24105.12756937  .00015176  00000+0  11359-2 0  9992
2 57780  43.0042  11.3368 0001570 266.6677  93.3985 15.02541913 34754
STARLINK-30369          
1 57781U 23134L   24105.15087199 -.00001739  00000+0 -11373-3 0  9992
2 57781  43.0055  11.5004 0001296 257.2186 102.8512 15.02524422 34921
STARLINK-30376          
1 57782U 23134M   24105.72919176  .00008822  00000+0  66702-3 0  9999
2 57782  43.0043   8.1141 0001765 247.3028 112.7628 15.02550795 35087
STARLINK-30389          
1 57783U 23134N   24105.14420962  .00002799  00000+0  22213-3 0  9992
2 57783  43.0057  11.4631 0001062 265.8159  94.2562 15.02549403 34752
STARLINK-30388          
1 57784U 23134P   24105.14089219  .00003113  00000+0  24541-3 0  9996
2 57784  43.0051  11.4373 0001452 267.2800  92.7876 15.02541862 34990
STARLINK-30381          
1 57785U 23134Q   24104.85165338  .00000508  00000+0  52677-4 0  9998
2 57785  43.0052  12.6139 0001716 260.2028  99.8620 15.02543668 34882
STARLINK-30382          
1 57786U 23134R   24104.87163774  .00001665  00000+0  13825-3 0  9999
2 57786  43.0052  12.8573 0001326 259.7242 100.3451 15.02542787 34954
STARLINK-30378          
1 57787U 23134S   24105.84550302  .00000512  00000+0  52989-4 0  9990
2 57787  43.0051   7.2638 0001222 260.9905  99.0799 15.02540303 35108
STARLINK-30387          
1 57788U 23134T   24105.03806966  .00000136  00000+0  25139-4 0  9991
2 57788  43.0054 358.7170 0001527 254.1817 105.8857 15.02531210 35133
STARLINK-30372          
1 57789U 23134U   24105.13421081  .00001713  00000+0  14174-3 0  9992
2 57789  43.0049  11.3773 0001330 259.9004 100.1688 15.02558229 34994
STARLINK-30373          
1 57790U 23134V   24104.21684846  .00003643  00000+0  28450-3 0  9998
2 57790  43.0052  16.5209 0001400 274.0928  85.9754 15.02549865 34857
STARLINK-30367          
1 57791U 23134W   24105.12423210  .00005534  00000+0  42425-3 0  9995
2 57791  43.0056  11.3160 0001331 266.2914  93.7776 15.02551837 34844
STARLINK-30304          
1 57808U 23138A   24105.80821300  .00007489  00000+0  56852-3 0  9995
2 57808  43.0034  46.8211 0001245 262.8542  97.2158 15.02559131 34277
STARLINK-30374          
1 57809U 23138B   24105.27306666  .00007342  00000+0  55781-3 0  9998
2 57809  43.0028  49.6920 0001116 291.8196  68.2527 15.02548652 34255
STARLINK-30394          
1 57810U 23138C   24104.87087237  .00000165  00000+0  27293-4 0  9999
2 57810  43.0044  51.8262 0001219 259.0062 101.0643 15.02536068 34096
STARLINK-30379          
1 57811U 23138D   24105.19992963  .00002361  00000+0  18980-3 0  9999
2 57811  43.0029  49.9958 0001310 239.4040 120.6673 15.02540023 34232
STARLINK-30395          
1 57812U 23138E   24105.19659963  .00001093  00000+0  95980-4 0  9997
2 57812  43.0055  49.9732 0001123 264.9438  95.1276 15.02540118 34238
STARLINK-30403          
1 57813U 23138F   24105.19326493  .00000827  00000+0  76289-4 0  9992
2 57813  43.0042  49.9484 0001244 257.6198 102.4505 15.02545540 34135
